<details>
<summary>点击展开（这是英国 14 大电力区域 Polygon 数据）</summary>
{
  "type": "FeatureCollection",
  "name": "uk_regions",
  "features": [
    {
      "type": "Feature",
      "properties": { "region": "North Scotland" },
      "geometry": {
        "type": "Polygon",
        "coordinates": [
          [
            [-4.9, 58.6],
            [-4.2, 58.5],
            [-3.0, 58.6],
            [-2.6, 58.2],
            [-3.5, 57.6],
            [-4.5, 57.8],
            [-5.1, 58.1],
            [-4.9, 58.6]
          ]
        ]
      }
    },
    {
      "type": "Feature",
      "properties": { "region": "South Scotland" },
      "geometry": {
        "type": "Polygon",
        "coordinates": [
          [
            [-5.0, 56.4],
            [-3.1, 56.6],
            [-2.5, 55.8],
            [-3.5, 55.0],
            [-4.7, 55.3],
            [-5.0, 56.4]
          ]
        ]
      }
    },
    {
      "type": "Feature",
      "properties": { "region": "North West England" },
      "geometry": {
        "type": "Polygon",
        "coordinates": [
          [
            [-3.6, 55.1],
            [-2.2, 55.0],
            [-2.0, 54.4],
            [-2.9, 53.9],
            [-3.7, 54.2],
            [-3.6, 55.1]
          ]
        ]
      }
    },
    {
      "type": "Feature",
      "properties": { "region": "North East England" },
      "geometry": {
        "type": "Polygon",
        "coordinates": [
          [
            [-2.2, 55.1],
            [-1.2, 55.0],
            [-1.0, 54.4],
            [-1.8, 54.0],
            [-2.5, 54.3],
            [-2.2, 55.1]
          ]
        ]
      }
    },
    {
      "type": "Feature",
      "properties": { "region": "Yorkshire" },
      "geometry": {
        "type": "Polygon",
        "coordinates": [
          [
            [-2.8, 54.0],
            [-1.5, 54.0],
            [-1.3, 53.5],
            [-2.0, 53.1],
            [-2.7, 53.4],
            [-2.8, 54.0]
          ]
        ]
      }
    },
    {
      "type": "Feature",
      "properties": { "region": "East Midlands" },
      "geometry": {
        "type": "Polygon",
        "coordinates": [
          [
            [-2.4, 53.5],
            [-1.4, 53.4],
            [-1.0, 52.8],
            [-1.7, 52.5],
            [-2.3, 52.9],
            [-2.4, 53.5]
          ]
        ]
      }
    },
    {
      "type": "Feature",
      "properties": { "region": "West Midlands" },
      "geometry": {
        "type": "Polygon",
        "coordinates": [
          [
            [-2.9, 53.2],
            [-2.0, 53.1],
            [-1.8, 52.3],
            [-2.6, 52.0],
            [-3.1, 52.6],
            [-2.9, 53.2]
          ]
        ]
      }
    },
    {
      "type": "Feature",
      "properties": { "region": "Wales" },
      "geometry": {
        "type": "Polygon",
        "coordinates": [
          [
            [-4.9, 53.4],
            [-4.0, 53.1],
            [-3.4, 52.0],
            [-4.1, 51.7],
            [-5.1, 52.6],
            [-4.9, 53.4]
          ]
        ]
      }
    },
    {
      "type": "Feature",
      "properties": { "region": "South West England" },
      "geometry": {
        "type": "Polygon",
        "coordinates": [
          [
            [-4.0, 51.7],
            [-2.9, 51.5],
            [-2.5, 50.9],
            [-3.4, 50.5],
            [-4.0, 50.8],
            [-4.0, 51.7]
          ]
        ]
      }
    },
    {
      "type": "Feature",
      "properties": { "region": "South England" },
      "geometry": {
        "type": "Polygon",
        "coordinates": [
          [
            [-2.8, 52.0],
            [-1.5, 52.1],
            [-1.1, 51.4],
            [-2.0, 51.0],
            [-2.7, 51.3],
            [-2.8, 52.0]
          ]
        ]
      }
    },
    {
      "type": "Feature",
      "properties": { "region": "East England" },
      "geometry": {
        "type": "Polygon",
        "coordinates": [
          [
            [-1.5, 52.3],
            [-0.3, 52.2],
            [0.3, 51.7],
            [-0.6, 51.3],
            [-1.3, 51.6],
            [-1.5, 52.3]
          ]
        ]
      }
    },
    {
      "type": "Feature",
      "properties": { "region": "London" },
      "geometry": {
        "type": "Polygon",
        "coordinates": [
          [
            [-0.5, 51.7],
            [0.2, 51.7],
            [0.3, 51.4],
            [-0.2, 51.3],
            [-0.5, 51.5],
            [-0.5, 51.7]
          ]
        ]
      }
    },
    {
      "type": "Feature",
      "properties": { "region": "South East England" },
      "geometry": {
        "type": "Polygon",
        "coordinates": [
          [
            [-1.0, 51.6],
            [0.3, 51.6],
            [0.6, 50.9],
            [-0.7, 50.7],
            [-1.2, 51.1],
            [-1.0, 51.6]
          ]
        ]
      }
    }
  ]
}